COSMOS 2530 (RODNIK-S *)
1 43751U 18097A   26140.60512766  .00000083  00000+0  52328-3 0  9994
2 43751  82.5156 239.3960 0020804  97.0893 263.2554 12.42880661338864
COSMOS 2531 (RODNIK-S *)
1 43752U 18097B   26140.62808575 -.00000002  00000+0 -87274-4 0  9995
2 43752  82.5202 240.4309 0017966 114.9083 245.3866 12.42911988338888
COSMOS 2532 (RODNIK-S *)
1 43753U 18097C   26140.65629171  .00000012  00000+0  10556-4 0  9990
2 43753  82.5146 239.2118 0019338 116.8710 243.4349 12.42908729338854
MINXSS-2                
1 43758U 18099A   26140.45236976  .00024549  00000+0  52282-3 0  9994
2 43758  97.4542 215.9660 0006696  16.9082 343.2388 15.44912684409842
SIRION PATHFINDER-2     
1 43759U 18099B   26140.56274851  .00003511  00000+0  19531-3 0  9997
2 43759  97.4267 190.2795 0009702  44.9718 315.2298 15.14264907408448
AISTECHSAT 2            
1 43768U 18099L   26140.08975791  .00003966  00000+0  21506-3 0  9994
2 43768  97.4309 188.7423 0005777  52.5965 307.5793 15.15127386408020
FOX-1CLIFF (AO-95)      
1 43770U 18099N   26140.41286313  .00008077  00000+0  31609-3 0  9992
2 43770  97.4395 200.7731 0010444  89.4115 270.8320 15.26039698408981
RANGE-A                 
1 43773U 18099R   26140.07501972  .00003176  00000+0  18267-3 0  9998
2 43773  97.3984 183.4794 0012096  86.6760 273.5855 15.13114006408248
SNUSAT-2                
1 43782U 18099AA  26140.38446571  .00005540  00000+0  24992-3 0  9994
2 43782  97.4072 194.2023 0011110  42.2948 317.9143 15.21361536408800
SNUGLITE                
1 43784U 18099AC  26140.42166006  .00008596  00000+0  33195-3 0  9992
2 43784  97.3882 194.9861 0003715  56.0703 304.0888 15.26500980409088
ITASAT                  
1 43786U 18099AE  26140.41759563  .00004945  00000+0  24132-3 0  9994
2 43786  97.4045 192.4886 0014390  91.1121 269.1762 15.18653930408690
EAGLET-I                
1 43790U 18099AJ  26140.40481636  .00002799  00000+0  16325-3 0  9991
2 43790  97.4249 190.8113 0012858  84.0425 276.2271 15.12699791408133
ESEO                    
1 43792U 18099AL  26140.37395631  .00001129  00000+0  85401-4 0  9996
2 43792  97.4000 178.9519 0013686  72.0814 288.1904 15.04154374407628
THEA                    
1 43796U 18099AQ  26140.16181026  .00012955  00000+0  39610-3 0  9997
2 43796  97.4449 209.6017 0007647  37.3966 322.7807 15.33967544408391
ASTROCAST 0.1           
1 43798U 18099AS  26140.15195458  .00025223  00000+0  49136-3 0  9998
2 43798  97.4381 217.8171 0003400 326.3048  33.7986 15.47532351410091
JY1SAT (JO-97)          
1 43803U 18099AX  26140.61860984  .00011951  00000+0  38082-3 0  9990
2 43803  97.4138 203.3752 0005594  26.5939 333.5589 15.32680744409404
SUOMI-100               
1 43804U 18099AY  26139.13098526  .00008395  00000+0  31256-3 0  9995
2 43804  97.4202 199.6455 0010424  32.8550 327.3335 15.27679899408986
CENTAURI-1              
1 43809U 18099BD  26140.55381359  .00004170  00000+0  21966-3 0  9991
2 43809  97.4237 192.8702 0015689  68.0513 292.2386 15.16045779408312
GLOBAL-2                
1 43812U 18099BG  26140.34910646  .00001437  00000+0  96034-4 0  9991
2 43812  97.3573 178.0214 0004237 240.3109 119.7698 15.08488800407714
SEAHAWK-1               
1 43820U 18099BQ  26140.40199836  .00006080  00000+0  26671-3 0  9995
2 43820  97.3972 193.3188 0009448  56.2080 304.0055 15.22294463408305
SAUDISAT 5A             
1 43831U 18102A   26140.59269146  .00003606  00000+0  13569-3 0  9997
2 43831  97.3077 202.7092 0008536 223.5525 136.5041 15.27729949411463
SAUDISAT 5B             
1 43833U 18102C   26140.61631825  .00003398  00000+0  12698-3 0  9999
2 43833  97.3183 205.7521 0009185 226.8382 133.2091 15.28003213411583
ISAT                    
1 43879U 18111D   26140.56479409  .00053462  00000+0  65006-3 0  9999
2 43879  97.5903  73.7694 0007210  67.1598 293.0419 15.60371085406855
UWE-4                   
1 43880U 18111E   26140.30392549  .00022718  00000+0  49462-3 0  9990
2 43880  97.5864  67.4508 0010336  72.5059 287.7318 15.44244642406478
D-STAR ONE (SPARROW)    
1 43881U 18111F   26140.35061720  .00084987  00000+0  79530-3 0  9995
2 43881  97.6124  78.7202 0007324  95.8850 264.3245 15.66950588407002
JILIN-1 09              
1 43943U 19005B   26140.60352065  .00003267  00000+0  15384-3 0  9999
2 43943  97.4723 235.8097 0002811 152.1255 208.0132 15.20238259404959
JILIN-1 10              
1 43946U 19005E   26140.57803346  .00003910  00000+0  15771-3 0  9996
2 43946  97.4767 239.3926 0008511  27.2576 332.9107 15.25384911405100
EGYPTSAT-A (MISRSAT-A)  
1 44047U 19008A   26140.61846608  .00000872  00000+0  14589-3 0  9995
2 44047  98.0046 205.7840 0001245  80.8971 279.2378 14.72272475389187
